# Made by eph2tle, compiled Nov  4 2024 12:27:56
# Run at Mon Nov 18 13:04:13 2024
#
#    The following TLEs (Two-Line Elements) were generated by fitting
# a numerically-integrated ephemeris,  based on the orbit given below,
# to the SDP4/SGP4 models.  Each TLE is good for the interval between
# its epoch and the epoch of the subsequent TLE (usually one day).
# The maximum deviation between the numerically integrated ephemerides
# and the TLE-based ephemeris, in kilometers,  is given for each TLE
# as the "worst residual".
#
#    This fitting is done using the 'eph2tle' code packaged with Find_Orb.
# The code has details on how the TLEs were computed :
#
#    https://github.com/Bill-Gray/find_orb/eph2tle.cpp
#
#    Be warned:  the error given is that between the numerically
# integrated ephems and the TLE model.  There will usually be at
# least some additional difference between the ephems and the actual
# motion of the satellite,  especially if the ephemerides are based
# on a short arc.  If the following orbital elements say something
# like "[based on] 10 observations 2015 Jan. 1-13",  and the TLEs
# are for 2015 May,  the extrapolation may be tenuous at best.  If
# your application requires a specific level of accuracy,  you may
# want to contact me;  I can give you some idea as to the fit of the
# underlying data (and possibly TLEs based on newer data).
#
#   You can usually find the underlying observational data,  and the
# fitted orbit,  residuals,  ephemerides,  and sometimes some comments
# about the object,  among the pages listed at
#
#    https://www.projectpluto.com/pluto/mpecs/pseudo.htm
#
#    Also,  if you use a TLE outside the "correct" time range (between
# its MJD and that of the next TLE),  all bets are off.  I've carefully
# computed and minimized the worst error over the "correct" time frame,
# but the ephemeris may (or may not) diverge wildly outside of it.
#
# Ephem range: 60584.000000 60692.000000 1.000000
# Created Mon Nov 18 13:04:08 2024
# Ephemeris start:  1 Oct 2024  0:00:00
# Ephemeris end:   17 Jan 2025  0:00:00
# Times are all TDT
# Positions/velocities are in equatorial J2000
# Orbital elements:  2022-157B = NORAD 54260 = Falcon 9-187 Stage 2
#    Perigee 2024 Oct 28.068494 +/- 0.000988 TT =  1:38:37.8 (JD 2460611.568494)
# Epoch 2024 Oct 28.0 TT; AMR 0.12731 +/- 0.0366 m^2/kg            Find_Orb
# M 326.490961821 +/- 0.48            (J2000 equator)
# n 489.228905685 +/- 0.0414          Peri.   85.755442 +/- 0.17
# a 34429.34549 +/- 1.94              Node   143.430259 +/- 0.08
# e   0.80931644 +/- 0.000269         Incl.   20.140601 +/- 0.0050
# P1059.607m/0.736d          H 27.21  G  0.15   U 10.6
# q 6565.109979 +/- 9.17    Q 62293.58101 +/- 10.8
# From 36 observations 2024 Oct. 9-Nov. 17; mean residual 41".067
#
# Elements after 10 Nov 2024 :
#
#    Perigee 2024 Nov 13.811419 +/- 0.000131 TT = 19:28:26.6 (JD 2460628.311419)
# Epoch 2024 Nov 14.0 TT; AMR 0.08217 +/- 0.0236 m^2/kg            Find_Orb
# M  94.533159569 +/- 0.08            (J2000 equator)
# n 501.286912768 +/- 0.144           Peri.   93.328586 +/- 0.044
# a 33874.99672 +/- 6.48              Node   138.821902 +/- 0.024
# e   0.80744202 +/- 0.000216         Incl.   20.143578 +/- 0.0018
# P1034.119m/0.718d          H 26.91  G  0.15   U 11.4
# q 6522.900841 +/- 6.08    Q 61227.09259 +/- 19
# From 25 observations 2024 Nov. 3-24; mean residual 96".405
#
# Elements after 20 Nov 2024 :
#
#    Perigee 2024 Nov 18.794819 +/- 0.000107 TT = 19:04:32.3 (JD 2460633.294819)
# Epoch 2024 Nov 19.0 TT; AMR 0.021852 +/- 0.0032 m^2/kg           Find_Orb
# M 104.716951842 +/- 0.051           (J2000 equator)
# n 510.362913366 +/- 0.0209          Peri.   95.323958 +/- 0.020
# a 33472.18790 +/- 0.914             Node   137.342439 +/- 0.011
# e   0.80569024 +/- 4.45e-5          Incl.   20.156172 +/- 0.0007
# P1015.729m/0.705d          H 26.79  G  0.15   U 10.1
# q 6503.972702 +/- 1.56    Q 60440.40311 +/- 1.8
# 21 of 50 observations 2024 Nov. 16-28; mean residual 56".521
#
# 1 NoradU COSPAR   Epoch.epoch     dn/dt/2  d2n/dt2/6 BSTAR    T El# C
# 2 NoradU Inclina RAAscNode Eccent  ArgPeri MeanAno  MeanMotion Rev# C

# Worst residual: 10.27 km
# MJD 60584.000000 (2024 Oct  1  0:00)
2022-157B = NORAD 54260 = Falcon 9-187 Stage 2
1 54260U 22157B   24275.49919926  .00000000  00000-0  00000-0 0 25148
2 54260 020.0781 150.3321 8079580 074.7027 032.2873 01.34760932    06

# Worst residual: 10.74 km
# MJD 60585.000000 (2024 Oct  2  0:00)
2022-157B = NORAD 54260 = Falcon 9-187 Stage 2
1 54260U 22157B   24276.49919926  .00000000  00000-0  00000-0 0 25149
2 54260 020.0796 150.1029 8080014 075.0996 157.4033 01.34768355    03

# Worst residual: 11.22 km
# MJD 60586.000000 (2024 Oct  3  0:00)
2022-157B = NORAD 54260 = Falcon 9-187 Stage 2
1 54260U 22157B   24277.49919926  .00000000  00000-0  00000-0 0 25140
2 54260 020.0769 149.8454 8080400 075.5305 282.5670 01.34780770    00

# Worst residual: 10.17 km
# MJD 60587.000000 (2024 Oct  4  0:00)
2022-157B = NORAD 54260 = Falcon 9-187 Stage 2
1 54260U 22157B   24278.49919926  .00000000  00000-0  00000-0 0 25141
2 54260 020.0760 149.6124 8080670 075.9272 047.8131 01.34813422    04

# Worst residual: 11.00 km
# MJD 60588.000000 (2024 Oct  5  0:00)
2022-157B = NORAD 54260 = Falcon 9-187 Stage 2
1 54260U 22157B   24279.49919926  .00000000  00000-0  00000-0 0 25142
2 54260 020.0789 149.3842 8080455 076.3256 173.1162 01.34817423    09

# Worst residual: 11.23 km
# MJD 60589.000000 (2024 Oct  6  0:00)
2022-157B = NORAD 54260 = Falcon 9-187 Stage 2
1 54260U 22157B   24280.49919926  .00000000  00000-0  00000-0 0 25144
2 54260 020.0755 149.1355 8081259 076.7480 298.4953 01.34843599    07

# Worst residual: 9.72 km
# MJD 60590.000000 (2024 Oct  7  0:00)
2022-157B = NORAD 54260 = Falcon 9-187 Stage 2
1 54260U 22157B   24281.49919926  .00000000  00000-0  00000-0 0 25145
2 54260 020.0746 148.9023 8081308 077.1470 063.9579 01.34876072    06

# Worst residual: 12.32 km
# MJD 60591.000000 (2024 Oct  8  0:00)
2022-157B = NORAD 54260 = Falcon 9-187 Stage 2
1 54260U 22157B   24282.49919926  .00000000  00000-0  00000-0 0 25146
2 54260 020.0755 148.6632 8081494 077.5559 189.5054 01.34884533    01

# Worst residual: 12.44 km
# MJD 60592.000000 (2024 Oct  9  0:00)
2022-157B = NORAD 54260 = Falcon 9-187 Stage 2
1 54260U 22157B   24283.49919926  .00000000  00000-0  00000-0 0 25147
2 54260 020.0723 148.4098 8082343 077.9868 315.1176 01.34913491    09

# Worst residual: 12.33 km
# MJD 60593.000000 (2024 Oct 10  0:00)
2022-157B = NORAD 54260 = Falcon 9-187 Stage 2
1 54260U 22157B   24284.49919926  .00000000  00000-0  00000-0 0 25148
2 54260 020.0711 148.1660 8082231 078.3927 080.8468 01.34945075    08

# Worst residual: 11.39 km
# MJD 60594.000000 (2024 Oct 11  0:00)
2022-157B = NORAD 54260 = Falcon 9-187 Stage 2
1 54260U 22157B   24285.49919926  .00000000  00000-0  00000-0 0 25149
2 54260 020.0710 147.9122 8082127 078.8194 206.6360 01.34957323    00

# Worst residual: 11.87 km
# MJD 60595.000000 (2024 Oct 12  0:00)
2022-157B = NORAD 54260 = Falcon 9-187 Stage 2
1 54260U 22157B   24286.49919926  .00000000  00000-0  00000-0 0 25140
2 54260 020.0686 147.6570 8082463 079.2482 332.5119 01.34984504    06

# Worst residual: 11.68 km
# MJD 60596.000000 (2024 Oct 13  0:00)
2022-157B = NORAD 54260 = Falcon 9-187 Stage 2
1 54260U 22157B   24287.49919926  .00000000  00000-0  00000-0 0 25141
2 54260 020.0681 147.4037 8082846 079.6632 098.4961 01.35018308    07

# Worst residual: 11.32 km
# MJD 60597.000000 (2024 Oct 14  0:00)
2022-157B = NORAD 54260 = Falcon 9-187 Stage 2
1 54260U 22157B   24288.49919926  .00000000  00000-0  00000-0 0 25142
2 54260 020.0686 147.1471 8082703 080.0914 224.5604 01.35030225    00

# Worst residual: 12.37 km
# MJD 60598.000000 (2024 Oct 15  0:00)
2022-157B = NORAD 54260 = Falcon 9-187 Stage 2
1 54260U 22157B   24289.49919926  .00000000  00000-0  00000-0 0 25143
2 54260 020.0666 146.8993 8083517 080.5102 350.7380 01.35075102    07

# Worst residual: 11.09 km
# MJD 60599.000000 (2024 Oct 16  0:00)
2022-157B = NORAD 54260 = Falcon 9-187 Stage 2
1 54260U 22157B   24290.49919926  .00000000  00000-0  00000-0 0 25145
2 54260 020.0661 146.6471 8083992 080.9276 117.0532 01.35116226    00

# Worst residual: 17.58 km
# MJD 60600.000000 (2024 Oct 17  0:00)
2022-157B = NORAD 54260 = Falcon 9-187 Stage 2
1 54260U 22157B   24291.49919926  .00000000  00000-0  00000-0 0 25146
2 54260 020.0638 146.3637 8084714 081.3837 243.5251 01.35152067    02

# Worst residual: 17.20 km
# MJD 60601.000000 (2024 Oct 18  0:00)
2022-157B = NORAD 54260 = Falcon 9-187 Stage 2
1 54260U 22157B   24292.49919926  .00000000  00000-0  00000-0 0 25147
2 54260 020.0611 146.0997 8085026 081.8273 010.1811 01.35230785    09

# Worst residual: 12.38 km
# MJD 60602.000000 (2024 Oct 19  0:00)
2022-157B = NORAD 54260 = Falcon 9-187 Stage 2
1 54260U 22157B   24293.49919926  .00000000  00000-0  00000-0 0 25148
2 54260 020.0618 145.8338 8084887 082.2563 137.1299 01.35302710    01

# Worst residual: 17.37 km
# MJD 60603.000000 (2024 Oct 20  0:00)
2022-157B = NORAD 54260 = Falcon 9-187 Stage 2
1 54260U 22157B   24294.49919926  .00000000  00000-0  00000-0 0 25149
2 54260 020.0584 145.5334 8084979 082.7348 264.2938 01.35358946    08

# Worst residual: 18.37 km
# MJD 60604.000000 (2024 Oct 21  0:00)
2022-157B = NORAD 54260 = Falcon 9-187 Stage 2
1 54260U 22157B   24295.49919926  .00000000  00000-0  00000-0 0 25140
2 54260 020.0576 145.2848 8083970 083.1552 031.7401 01.35450763    00

# Worst residual: 10.65 km
# MJD 60605.000000 (2024 Oct 22  0:00)
2022-157B = NORAD 54260 = Falcon 9-187 Stage 2
1 54260U 22157B   24296.49919926  .00000000  00000-0  00000-0 0 25141
2 54260 020.0604 145.0369 8083974 083.5684 159.4570 01.35516340    01
